ORBCOMM FM05            
1 25117U 97084F   24353.20040996  .00003734  00000+0  11072-2 0  9990
2 25117  45.0128 156.3069 0000734  71.8405 288.2526 14.44708482415361
ORBCOMM FM06            
1 25118U 97084G   24353.17511089  .00003457  00000+0  10242-2 0  9993
2 25118  45.0122 156.3925 0000782 149.9083  20.6037 14.44890498415330
ORBCOMM FM07            
1 25119U 97084H   24354.18709461  .00003303  00000+0  98297-3 0  9996
2 25119  45.0120 152.2515 0001131  39.6982 320.3952 14.44768090415496
ORBCOMM FM03            
1 25158U 98007B   24353.88657686  .00003407  00000+0  12581-2 0  9998
2 25158 107.9669 125.4013 0047692 206.7478 153.1200 14.33615265398333
ORBCOMM FM04            
1 25159U 98007C   24353.34512244  .00003172  00000+0  11713-2 0  9995
2 25159 107.9660 127.3853 0043292 205.5406 154.3594 14.33883698398299
ORBCOMM FM17            
1 25413U 98046A   24353.36305811  .00001968  00000+0  74285-3 0  9998
2 25413  44.9952  30.5842 0002432 326.6618  33.4075 14.34370234377207
ORBCOMM FM18            
1 25414U 98046B   24353.31884591  .00003115  00000+0  10762-2 0  9996
2 25414  44.9937 312.8513 0003548  64.7332 295.3884 14.37556114378219
ORBCOMM FM19            
1 25415U 98046C   24353.33495748  .00002578  00000+0  90225-3 0  9996
2 25415  44.9950 314.4931 0002750  44.3774  79.1325 14.37370515378177
